ALOS-4 (DAICHI-4)       
1 60182U 24123A   24291.20682669  .00006386  00000+0  86135-3 0  9994
2 60182  97.9225  26.1074 0001373 102.0169 258.1196 14.79463445 15988
